NORAD_CAT_ID,OBJECT_NAME,OBJECT_TYPE,EPOCH,MEAN_MOTION,ECCENTRICITY,INCLINATION,RA_OF_ASC_NODE,ARG_OF_PERICENTER,MEAN_ANOMALY,BSTAR,MEAN_MOTION_DOT,MEAN_MOTION_DDOT,TLE_LINE0,TLE_LINE1,TLE_LINE2,SEMIMAJOR_AXIS,PERIOD,APOGEE,PERIGEE,DECAYED
51731.0,STARLINK-3514,PAYLOAD,2023-11-10 08:29:53,15.08863875,0.0001516,53.2142,176.4302,69.2903,290.8251,0.0014581,0.00023009,0.0,0 STARLINK-3514,1 51731U 22016T   23314.35409506  .00023009  00000-0  14581-2 0  9998,2 51731  53.2142 176.4302 0001516  69.2903 290.8251 15.08863875 96307,6917.807,95.436,540.721,538.624,0.0
51731.0,STARLINK-3514,PAYLOAD,2023-11-10 19:37:35,15.08854244,0.0002073,53.2173,174.3412,105.3123,254.8098,0.00078131,0.00012173,0.0,0 STARLINK-3514,1 51731U 22016T   23314.81777342  .00012173  00000-0  78131-3 0  9997,2 51731  53.2173 174.3412 0002073 105.3123 254.8098 15.08854244 96371,6917.837,95.437,541.136,538.268,0.0
51731.0,STARLINK-3514,PAYLOAD,2023-11-10 21:12:58,15.08849095,0.0001772,53.2177,174.0439,104.0331,256.0859,0.00057076,8.81e-05,0.0,0 STARLINK-3514,1 51731U 22016T   23314.88401263  .00008810  00000-0  57076-3 0  9998,2 51731  53.2177 174.0439 0001772 104.0331 256.0859 15.08849095 95278,6917.853,95.437,540.943,538.492,0.0
51731.0,STARLINK-3514,PAYLOAD,2023-11-11 09:56:03,15.08844926,0.0001528,53.2155,171.6646,97.575,262.5416,3.1288e-06,-2.38e-06,0.0,0 STARLINK-3514,1 51731U 22016T   23315.41393235 -.00000238  00000-0  31288-5 0  9993,2 51731  53.2155 171.6646 0001528  97.5750 262.5416 15.08844926 96468,6917.865,95.437,540.787,538.673,0.0
51731.0,STARLINK-3514,PAYLOAD,2023-11-11 21:03:45,15.08843013,0.0001505,53.2158,169.5843,95.862,264.2544,2.9957e-05,1.89e-06,0.0,0 STARLINK-3514,1 51731U 22016T   23315.87761387  .00000189  00000-0  29957-4 0  9993,2 51731  53.2158 169.5843 0001505  95.8620 264.2544 15.08843013 95420,6917.871,95.437,540.777,538.695,0.0
51731.0,STARLINK-3514,PAYLOAD,2023-11-12 00:14:32,15.0884243,0.0001522,53.2158,168.9898,95.5296,264.587,2.1063e-05,4.7e-07,0.0,0 STARLINK-3514,1 51731U 22016T   23316.01009403  .00000047  00000-0  21063-4 0  9997,2 51731  53.2158 168.9898 0001522  95.5296 264.5870 15.08842430 95447,6917.873,95.437,540.791,538.685,0.0
51731.0,STARLINK-3514,PAYLOAD,2023-11-12 19:19:09,15.08845801,0.000142,53.2156,165.4222,92.7363,267.3792,0.00015494,2.179e-05,0.0,0 STARLINK-3514,1 51731U 22016T   23316.80497147  .00002179  00000-0  15494-3 0  9998,2 51731  53.2156 165.4222 0001420  92.7363 267.3792 15.08845801 96674,6917.863,95.437,540.71,538.745,0.0
51731.0,STARLINK-3514,PAYLOAD,2023-11-13 00:05:19,15.08831876,0.0001564,53.2156,164.5301,95.78,264.337,0.00058635,9.054e-05,0.0,0 STARLINK-3514,1 51731U 22016T   23317.00369847  .00009054  00000-0  58635-3 0  9999,2 51731  53.2156 164.5301 0001564  95.7800 264.3370 15.08831876 96700,6917.905,95.438,540.852,538.688,0.0
51731.0,STARLINK-3514,PAYLOAD,2023-11-13 06:26:51,15.08847111,0.0001551,53.2156,163.3397,92.5019,267.615,3.8291e-05,3.22e-06,0.0,0 STARLINK-3514,1 51731U 22016T   23317.26864915  .00000322  00000-0  38291-4 0  9999,2 51731  53.2156 163.3397 0001551  92.5019 267.6150 15.08847111 96740,6917.859,95.437,540.797,538.651,0.0
51731.0,STARLINK-3514,PAYLOAD,2023-11-13 20:45:19,15.08841816,0.000153,53.2152,160.6644,89.3789,270.7378,9.0266e-05,1.149e-05,0.0,0 STARLINK-3514,1 51731U 22016T   23317.86481142  .00001149  00000-0  90266-4 0  9990,2 51731  53.2152 160.6644 0001530  89.3789 270.7378 15.08841816 95726,6917.875,95.437,540.798,538.681,0.0
51731.0,STARLINK-3514,PAYLOAD,2023-11-13 23:56:06,15.08840672,0.000149,53.2163,160.0703,89.4324,270.6839,8.7606e-05,1.107e-05,0.0,0 STARLINK-3514,1 51731U 22016T   23317.99729376  .00001107  00000-0  87606-4 0  9996,2 51731  53.2163 160.0703 0001490  89.4324 270.6839 15.08840672 96854,6917.878,95.438,540.774,538.713,0.0
51731.0,STARLINK-3514,PAYLOAD,2023-11-14 06:17:38,15.08837912,0.0001443,53.2157,158.8803,87.6941,272.4217,5.4569e-05,5.81e-06,0.0,0 STARLINK-3514,1 51731U 22016T   23318.26225584  .00000581  00000-0  54569-4 0  9996,2 51731  53.2157 158.8803 0001443  87.6941 272.4217 15.08837912 95780,6917.887,95.438,540.75,538.754,0.0
51731.0,STARLINK-3514,PAYLOAD,2023-11-14 20:36:07,15.08839555,0.0001495,53.2163,156.2035,82.7122,277.4041,3.2625e-05,2.31e-06,0.0,0 STARLINK-3514,1 51731U 22016T   23318.85841577  .00000231  00000-0  32625-4 0  9998,2 51731  53.2163 156.2035 0001495  82.7122 277.4041 15.08839555 95875,6917.882,95.438,540.781,538.713,0.0
51731.0,STARLINK-3514,PAYLOAD,2023-11-14 23:46:53,15.08837611,0.0001425,53.2159,155.6091,83.7056,276.4098,3.8048e-06,-2.27e-06,0.0,0 STARLINK-3514,1 51731U 22016T   23318.99089728 -.00000227  00000-0  38048-5 0  9997,2 51731  53.2159 155.6091 0001425  83.7056 276.4098 15.08837611 97004,6917.888,95.438,540.738,538.767,0.0
51731.0,STARLINK-3514,PAYLOAD,2023-11-16 12:20:45,15.08838435,0.0001371,53.2164,148.7704,89.3596,270.7553,9.3349e-05,1.198e-05,0.0,0 STARLINK-3514,1 51731U 22016T   23320.51441654  .00001198  00000-0  93349-4 0  9999,2 51731  53.2164 148.7704 0001371  89.3596 270.7553 15.08838435 97238,6917.885,95.438,540.699,538.802,0.0
51731.0,STARLINK-3514,PAYLOAD,2023-11-16 21:53:04,15.08839794,0.0001421,53.2161,146.9868,91.9823,268.1332,7.802e-05,9.54e-06,0.0,0 STARLINK-3514,1 51731U 22016T   23320.91185589  .00000954  00000-0  78020-4 0  9993,2 51731  53.2161 146.9868 0001421  91.9823 268.1332 15.08839794 96182,6917.881,95.438,540.729,538.763,0.0
51731.0,STARLINK-3514,PAYLOAD,2023-11-17 12:11:32,15.08839768,0.0001436,53.2151,144.3099,91.9716,268.144,6.1735e-05,6.95e-06,0.0,0 STARLINK-3514,1 51731U 22016T   23321.50801687  .00000695  00000-0  61735-4 0  9990,2 51731  53.2151 144.3099 0001436  91.9716 268.1440 15.08839768 96277,6917.881,95.438,540.74,538.753,0.0
51731.0,STARLINK-3514,PAYLOAD,2023-11-17 18:33:05,15.08839889,0.0001425,53.215,143.1202,92.3011,267.8145,6.3298e-05,7.2e-06,0.0,0 STARLINK-3514,1 51731U 22016T   23321.77297650  .00000720  00000-0  63298-4 0  9993,2 51731  53.2150 143.1202 0001425  92.3011 267.8145 15.08839889 97420,6917.881,95.438,540.732,538.76,0.0
51731.0,STARLINK-3514,PAYLOAD,2023-11-18 12:02:19,15.08842021,0.00014,53.2153,139.8493,91.726,268.3892,6.9008e-05,8.11e-06,0.0,0 STARLINK-3514,1 51731U 22016T   23322.50161502  .00000811  00000-0  69008-4 0  9997,2 51731  53.2153 139.8493 0001400  91.7260 268.3892 15.08842021 96425,6917.874,95.437,540.708,538.771,0.0
51731.0,STARLINK-3514,PAYLOAD,2023-11-18 18:23:51,15.088434,0.0001399,53.2152,138.6598,91.8566,268.2587,7.5652e-05,9.16e-06,0.0,0 STARLINK-3514,1 51731U 22016T   23322.76657343  .00000916  00000-0  75652-4 0  9996,2 51731  53.2152 138.6598 0001399  91.8566 268.2587 15.08843400 96460,6917.87,95.437,540.703,538.767,0.0
51731.0,STARLINK-3514,PAYLOAD,2023-11-19 11:53:06,15.08840136,0.0001348,53.2154,135.3885,93.3477,266.7669,5.6067e-05,6.05e-06,0.0,0 STARLINK-3514,1 51731U 22016T   23323.49521568  .00000605  00000-0  56067-4 0  9990,2 51731  53.2154 135.3885 0001348  93.3477 266.7669 15.08840136 97689,6917.88,95.438,540.678,538.812,0.0
51731.0,STARLINK-3514,PAYLOAD,2023-11-19 21:25:25,15.08841688,0.0001322,53.2163,133.6049,92.1662,267.9481,5.4743e-05,5.83e-06,0.0,0 STARLINK-3514,1 51731U 22016T   23323.89265388  .00000583  00000-0  54743-4 0  9993,2 51731  53.2163 133.6049 0001322  92.1662 267.9481 15.08841688 96639,6917.875,95.437,540.655,538.826,0.0
51731.0,STARLINK-3514,PAYLOAD,2023-11-20 10:08:30,15.08840355,0.0001319,53.2161,131.2259,91.9294,268.1849,2.8426e-05,1.65e-06,0.0,0 STARLINK-3514,1 51731U 22016T   23324.42257567  .00000165  00000-0  28426-4 0  9998,2 51731  53.2161 131.2259 0001319  91.9294 268.1849 15.08840355 96718,6917.879,95.438,540.657,538.832,0.0
51731.0,STARLINK-3514,PAYLOAD,2023-11-20 18:05:26,15.08840724,0.0001335,53.2163,129.7391,92.3608,267.7537,2.6316e-05,1.31e-06,0.0,0 STARLINK-3514,1 51731U 22016T   23324.75377549  .00000131  00000-0  26316-4 0  9996,2 51731  53.2163 129.7391 0001335  92.3608 267.7537 15.08840724 97878,6917.878,95.438,540.667,538.82,0.0
51731.0,STARLINK-3514,PAYLOAD,2023-11-21 11:34:40,15.08837039,0.0001344,53.2166,126.4681,91.9275,268.1871,1.7505e-05,-9e-08,0.0,0 STARLINK-3514,1 51731U 22016T   23325.48241871 -.00000009  00000-0  17505-4 0  9990,2 51731  53.2166 126.4681 0001344  91.9275 268.1871 15.08837039 96872,6917.889,95.438,540.684,538.825,0.0
51731.0,STARLINK-3514,PAYLOAD,2023-11-21 17:56:13,15.08839305,0.000135,53.2166,125.2786,91.8683,268.2464,3.5484e-05,2.77e-06,0.0,0 STARLINK-3514,1 51731U 22016T   23325.74737718  .00000277  00000-0  35484-4 0  9991,2 51731  53.2166 125.2786 0001350  91.8683 268.2464 15.08839305 96916,6917.883,95.438,540.681,538.814,0.0
51731.0,STARLINK-3514,PAYLOAD,2023-11-22 09:50:04,15.08837231,0.0001336,53.2165,122.305,92.0269,268.0876,4.6523e-05,4.53e-06,0.0,0 STARLINK-3514,1 51731U 22016T   23326.40977956  .00000453  00000-0  46523-4 0  9997,2 51731  53.2165 122.3050 0001336  92.0269 268.0876 15.08837231 98120,6917.889,95.438,540.678,538.83,0.0
51731.0,STARLINK-3514,PAYLOAD,2023-11-22 14:36:14,15.08839417,0.000134,53.2166,121.413,92.1993,267.9153,5.4049e-05,5.72e-06,0.0,0 STARLINK-3514,1 51731U 22016T   23326.60849834  .00000572  00000-0  54049-4 0  9996,2 51731  53.2166 121.4130 0001340  92.1993 267.9153 15.08839417 97044,6917.882,95.438,540.674,538.82,0.0
51731.0,STARLINK-3514,PAYLOAD,2023-11-22 17:47:00,15.08842895,0.0001354,53.2168,120.8184,91.9858,268.1289,8.3547e-05,1.042e-05,0.0,0 STARLINK-3514,1 51731U 22016T   23326.74097543  .00001042  00000-0  83547-4 0  9991,2 51731  53.2168 120.8184 0001354  91.9858 268.1289 15.08842895 97069,6917.872,95.437,540.673,538.8,0.0
51731.0,STARLINK-3514,PAYLOAD,2023-11-23 14:27:01,15.08834352,0.0001595,53.218,116.9538,72.8539,287.2628,3.3924e-05,2.52e-06,0.0,0 STARLINK-3514,1 51731U 22016T   23327.60210631  .00000252  00000-0  33924-4 0  9998,2 51731  53.2180 116.9538 0001595  72.8539 287.2628 15.08834352 97195,6917.898,95.438,540.866,538.659,0.0
